[{"OBJECT_NAME":"FLOCK 4G-10","OBJECT_ID":"2025-009BP","EPOCH":"2026-03-09T16:59:55.292640","MEAN_MOTION":15.27155944,"ECCENTRICITY":0.00034694,"INCLINATION":97.3967,"RA_OF_ASC_NODE":150.5883,"ARG_OF_PERICENTER":341.4844,"MEAN_ANOMALY":18.6269,"EPHEMERIS_TYPE":0,"CLASSIFICATION_TYPE":"U","NORAD_CAT_ID":62670,"ELEMENT_SET_NO":999,"REV_AT_EPOCH":12134,"BSTAR":0.00052624432,"MEAN_MOTION_DOT":0.00013952,"MEAN_MOTION_DDOT":0},{"OBJECT_NAME":"STARLINK-35816","OBJECT_ID":"2025-263Q","EPOCH":"2026-03-09T03:45:59.379264","MEAN_MOTION":15.27576912,"ECCENTRICITY":0.00017652,"INCLINATION":43.003,"RA_OF_ASC_NODE":354.0351,"ARG_OF_PERICENTER":277.2488,"MEAN_ANOMALY":82.8163,"EPHEMERIS_TYPE":0,"CLASSIFICATION_TYPE":"U","NORAD_CAT_ID":66499,"ELEMENT_SET_NO":999,"REV_AT_EPOCH":1881,"BSTAR":0.0013877577,"MEAN_MOTION_DOT":0.0003812,"MEAN_MOTION_DDOT":0}]
